GLOBALSTAR M057         
1 25943U 99058A   25246.94562599 -.00000091  00000+0  14438-4 0  9996
2 25943  51.9980 124.6877 0002484 158.8612 201.2341 12.24826749176586
GLOBALSTAR M059         
1 25944U 99058B   25246.62895249  .00000011  00000+0  12076-2 0  9998
2 25944  52.0051 354.9633 0001120 109.0323 264.3715 11.99984529583465
GLOBALSTAR M056         
1 25945U 99058C   25246.56474119 -.00000100  00000+0 -15203-3 0  9998
2 25945  51.9998 355.0859 0000689  22.2680 351.1676 12.04779145172072
GLOBALSTAR M031         
1 25946U 99058D   25246.76922319 -.00000102  00000+0 -11574-3 0  9990
2 25946  51.9939 242.1516 0001395 344.0700 187.1335 12.16039684174102
GLOBALSTAR M039         
1 25961U 99062A   25246.71154891 -.00000066  00000+0  20930-3 0  9993
2 25961  51.9861  29.5439 0003062 147.6223 212.4832 12.62331499190139
GLOBALSTAR M034         
1 25962U 99062B   25246.53575500 -.00000094  00000+0 -21522-3 0  9998
2 25962  51.9864 167.7256 0013640 188.2884 342.3079 11.79448052147636
GLOBALSTAR M029         
1 25963U 99062C   25246.76324716 -.00000034  00000+0  64277-3 0  9992
2 25963  51.9780 242.5685 0002461 275.9613 255.2552 11.99900677178556
GLOBALSTAR M061         
1 25964U 99062D   25246.79806564 -.00000103  00000+0 -37238-3 0  9997
2 25964  51.9831 352.1238 0006587 112.7847  36.2506 11.76775425130433
